[{"OBJECT_NAME":"LEMUR-2-KREMPEL-BRO1","OBJECT_ID":"2025-061G","EPOCH":"2026-03-02T09:28:06.790656","MEAN_MOTION":15.13678479,"ECCENTRICITY":0.00171443,"INCLINATION":97.5516,"RA_OF_ASC_NODE":38.0571,"ARG_OF_PERICENTER":256.5935,"MEAN_ANOMALY":103.3386,"EPHEMERIS_TYPE":0,"CLASSIFICATION_TYPE":"U","NORAD_CAT_ID":63357,"ELEMENT_SET_NO":999,"REV_AT_EPOCH":5147,"BSTAR":0.00033188317,"MEAN_MOTION_DOT":5.926e-5,"MEAN_MOTION_DDOT":0},{"OBJECT_NAME":"LEMUR-2-LANGER2SPACE","OBJECT_ID":"2025-061H","EPOCH":"2026-03-02T19:06:45.486720","MEAN_MOTION":15.13369513,"ECCENTRICITY":0.0015083,"INCLINATION":97.5521,"RA_OF_ASC_NODE":38.3126,"ARG_OF_PERICENTER":265.1169,"MEAN_ANOMALY":94.834,"EPHEMERIS_TYPE":0,"CLASSIFICATION_TYPE":"U","NORAD_CAT_ID":63358,"ELEMENT_SET_NO":999,"REV_AT_EPOCH":5152,"BSTAR":0.00034144,"MEAN_MOTION_DOT":6.04e-5,"MEAN_MOTION_DDOT":0},{"OBJECT_NAME":"LEMUR-2-BALTO","OBJECT_ID":"2025-052BH","EPOCH":"2026-03-02T16:26:50.115264","MEAN_MOTION":14.98810204,"ECCENTRICITY":0.0003225,"INCLINATION":97.701,"RA_OF_ASC_NODE":316.5941,"ARG_OF_PERICENTER":19.6545,"MEAN_ANOMALY":340.4801,"EPHEMERIS_TYPE":0,"CLASSIFICATION_TYPE":"U","NORAD_CAT_ID":63395,"ELEMENT_SET_NO":999,"REV_AT_EPOCH":5280,"BSTAR":0.00061276,"MEAN_MOTION_DOT":7.334e-5,"MEAN_MOTION_DDOT":0}]
