LEMUR-2-KREMPEL-BRO1    
1 63357U 25061G   26061.39452304  .00005926  00000+0  33188-3 0  9990
2 63357  97.5516  38.0571 0017144 256.5935 103.3386 15.13678479 51477
LEMUR-2-LANGER2SPACE    
1 63358U 25061H   26061.79635980  .00006040  00000+0  34144-3 0  9999
2 63358  97.5521  38.3126 0015083 265.1169  94.8340 15.13369513 51524
LEMUR-2-BALTO           
1 63395U 25052BH  26061.68530226  .00007334  00000+0  61276-3 0  9998
2 63395  97.7010 316.5941 0003225  19.6545 340.4801 14.98810204 52805
